CCSDS_OMM_VERS = 2.0
CREATION_DATE  = 
ORIGINATOR     = 

OBJECT_NAME    = IDEFIX & ARIANE 42P R/B
OBJECT_ID      = 2002-021B
CENTER_NAME    = EARTH
REF_FRAME      = TEME
TIME_SYSTEM    = UTC
MEAN_ELEMENT_THEORY = SGP/SGP4

EPOCH          = 2026-02-25T19:39:38.009088
MEAN_MOTION    = 14.31016311
ECCENTRICITY   = .0010941
INCLINATION    = 98.5857
RA_OF_ASC_NODE = 355.5684
ARG_OF_PERICENTER = 218.7403
MEAN_ANOMALY   = 141.2996

EPHEMERIS_TYPE = 0
CLASSIFICATION_TYPE = U
NORAD_CAT_ID   = 27422
ELEMENT_SET_NO = 999
REV_AT_EPOCH   = 24232
BSTAR          = .11149E-3
MEAN_MOTION_DOT = .25E-5
MEAN_MOTION_DDOT = 0

CCSDS_OMM_VERS = 2.0
CREATION_DATE  = 
ORIGINATOR     = 

OBJECT_NAME    = AQUA
OBJECT_ID      = 2002-022A
CENTER_NAME    = EARTH
REF_FRAME      = TEME
TIME_SYSTEM    = UTC
MEAN_ELEMENT_THEORY = SGP/SGP4

EPOCH          = 2026-02-25T21:41:15.055008
MEAN_MOTION    = 14.61943069
ECCENTRICITY   = .0000863
INCLINATION    = 98.4152
RA_OF_ASC_NODE = 24.0559
ARG_OF_PERICENTER = 49.0611
MEAN_ANOMALY   = 325.0823

EPHEMERIS_TYPE = 0
CLASSIFICATION_TYPE = U
NORAD_CAT_ID   = 27424
ELEMENT_SET_NO = 999
REV_AT_EPOCH   = 26701
BSTAR          = .20547E-3
MEAN_MOTION_DOT = .98E-5
MEAN_MOTION_DDOT = 0

CCSDS_OMM_VERS = 2.0
CREATION_DATE  = 
ORIGINATOR     = 

OBJECT_NAME    = CZ-4B R/B
OBJECT_ID      = 2002-024C
CENTER_NAME    = EARTH
REF_FRAME      = TEME
TIME_SYSTEM    = UTC
MEAN_ELEMENT_THEORY = SGP/SGP4

EPOCH          = 2026-02-25T18:42:17.090208
MEAN_MOTION    = 14.14545205
ECCENTRICITY   = .0050983
INCLINATION    = 98.8867
RA_OF_ASC_NODE = 110.2445
ARG_OF_PERICENTER = 57.6453
MEAN_ANOMALY   = 76.4576

EPHEMERIS_TYPE = 0
CLASSIFICATION_TYPE = U
NORAD_CAT_ID   = 27432
ELEMENT_SET_NO = 999
REV_AT_EPOCH   = 22755
BSTAR          = .38946E-4
MEAN_MOTION_DOT = .31E-6
MEAN_MOTION_DDOT = 0

CCSDS_OMM_VERS = 2.0
CREATION_DATE  = 
ORIGINATOR     = 

OBJECT_NAME    = MIDORI II (ADEOS-II)
OBJECT_ID      = 2002-056A
CENTER_NAME    = EARTH
REF_FRAME      = TEME
TIME_SYSTEM    = UTC
MEAN_ELEMENT_THEORY = SGP/SGP4

EPOCH          = 2026-02-25T19:59:18.235680
MEAN_MOTION    = 14.29274476
ECCENTRICITY   = .0001958
INCLINATION    = 98.7746
RA_OF_ASC_NODE = 15.2303
ARG_OF_PERICENTER = 59.4703
MEAN_ANOMALY   = 300.6671

EPHEMERIS_TYPE = 0
CLASSIFICATION_TYPE = U
NORAD_CAT_ID   = 27597
ELEMENT_SET_NO = 999
REV_AT_EPOCH   = 20860
BSTAR          = .11573E-3
MEAN_MOTION_DOT = .249E-5
MEAN_MOTION_DDOT = 0

CCSDS_OMM_VERS = 2.0
CREATION_DATE  = 
ORIGINATOR     = 

OBJECT_NAME    = H-2A R/B
OBJECT_ID      = 2002-056E
CENTER_NAME    = EARTH
REF_FRAME      = TEME
TIME_SYSTEM    = UTC
MEAN_ELEMENT_THEORY = SGP/SGP4

EPOCH          = 2026-02-25T20:05:50.773344
MEAN_MOTION    = 14.33751533
ECCENTRICITY   = .0069757
INCLINATION    = 98.3178
RA_OF_ASC_NODE = 17.6558
ARG_OF_PERICENTER = 196.0070
MEAN_ANOMALY   = 193.5345

EPHEMERIS_TYPE = 0
CLASSIFICATION_TYPE = U
NORAD_CAT_ID   = 27601
ELEMENT_SET_NO = 999
REV_AT_EPOCH   = 21241
BSTAR          = .107E-3
MEAN_MOTION_DOT = .264E-5
MEAN_MOTION_DDOT = 0

CCSDS_OMM_VERS = 2.0
CREATION_DATE  = 
ORIGINATOR     = 

OBJECT_NAME    = CZ-4B R/B
OBJECT_ID      = 2003-049C
CENTER_NAME    = EARTH
REF_FRAME      = TEME
TIME_SYSTEM    = UTC
MEAN_ELEMENT_THEORY = SGP/SGP4

EPOCH          = 2026-02-25T13:19:47.409312
MEAN_MOTION    = 14.55005908
ECCENTRICITY   = .0046991
INCLINATION    = 98.6867
RA_OF_ASC_NODE = 50.9854
ARG_OF_PERICENTER = 268.8006
MEAN_ANOMALY   = 90.7806

EPHEMERIS_TYPE = 0
CLASSIFICATION_TYPE = U
NORAD_CAT_ID   = 28059
ELEMENT_SET_NO = 999
REV_AT_EPOCH   = 18483
BSTAR          = .10292E-3
MEAN_MOTION_DOT = .398E-5
MEAN_MOTION_DDOT = 0

CCSDS_OMM_VERS = 2.0
CREATION_DATE  = 
ORIGINATOR     = 

OBJECT_NAME    = CZ-2C R/B
OBJECT_ID      = 2004-012C
CENTER_NAME    = EARTH
REF_FRAME      = TEME
TIME_SYSTEM    = UTC
MEAN_ELEMENT_THEORY = SGP/SGP4

EPOCH          = 2026-02-25T13:52:59.472768
MEAN_MOTION    = 15.62960860
ECCENTRICITY   = .0014004
INCLINATION    = 97.7265
RA_OF_ASC_NODE = 120.7373
ARG_OF_PERICENTER = 358.4403
MEAN_ANOMALY   = 1.6808

EPHEMERIS_TYPE = 0
CLASSIFICATION_TYPE = U
NORAD_CAT_ID   = 28222
ELEMENT_SET_NO = 999
REV_AT_EPOCH   = 20238
BSTAR          = .54837E-3
MEAN_MOTION_DOT = .49969E-3
MEAN_MOTION_DDOT = 0

CCSDS_OMM_VERS = 2.0
CREATION_DATE  = 
ORIGINATOR     = 

OBJECT_NAME    = SL-16 R/B
OBJECT_ID      = 2004-021B
CENTER_NAME    = EARTH
REF_FRAME      = TEME
TIME_SYSTEM    = UTC
MEAN_ELEMENT_THEORY = SGP/SGP4

EPOCH          = 2026-02-25T12:09:30.760992
MEAN_MOTION    = 14.14599270
ECCENTRICITY   = .00034186
INCLINATION    = 70.9989
RA_OF_ASC_NODE = 258.0614
ARG_OF_PERICENTER = 37.1991
MEAN_ANOMALY   = 322.9368

EPHEMERIS_TYPE = 0
CLASSIFICATION_TYPE = U
NORAD_CAT_ID   = 28353
ELEMENT_SET_NO = 999
REV_AT_EPOCH   = 12111
BSTAR          = .67445204E-4
MEAN_MOTION_DOT = .82E-6
MEAN_MOTION_DDOT = 0

CCSDS_OMM_VERS = 2.0
CREATION_DATE  = 
ORIGINATOR     = 

OBJECT_NAME    = CZ-4B R/B
OBJECT_ID      = 2004-035C
CENTER_NAME    = EARTH
REF_FRAME      = TEME
TIME_SYSTEM    = UTC
MEAN_ELEMENT_THEORY = SGP/SGP4

EPOCH          = 2026-02-25T16:05:46.174848
MEAN_MOTION    = 15.28813144
ECCENTRICITY   = .003252
INCLINATION    = 97.3528
RA_OF_ASC_NODE = 91.0588
ARG_OF_PERICENTER = 14.7059
MEAN_ANOMALY   = 345.5120

EPHEMERIS_TYPE = 0
CLASSIFICATION_TYPE = U
NORAD_CAT_ID   = 28415
ELEMENT_SET_NO = 999
REV_AT_EPOCH   = 17807
BSTAR          = .26274E-3
MEAN_MOTION_DOT = .7397E-4
MEAN_MOTION_DDOT = 0

CCSDS_OMM_VERS = 2.0
CREATION_DATE  = 
ORIGINATOR     = 

OBJECT_NAME    = CZ-2C R/B
OBJECT_ID      = 2004-046B
CENTER_NAME    = EARTH
REF_FRAME      = TEME
TIME_SYSTEM    = UTC
MEAN_ELEMENT_THEORY = SGP/SGP4

EPOCH          = 2026-02-25T08:31:09.750144
MEAN_MOTION    = 14.26987442
ECCENTRICITY   = .01391315
INCLINATION    = 98.1989
RA_OF_ASC_NODE = 332.1059
ARG_OF_PERICENTER = 190.8801
MEAN_ANOMALY   = 168.9364

EPHEMERIS_TYPE = 0
CLASSIFICATION_TYPE = U
NORAD_CAT_ID   = 28480
ELEMENT_SET_NO = 999
REV_AT_EPOCH   = 10674
BSTAR          = .55920861E-4
MEAN_MOTION_DOT = .11E-5
MEAN_MOTION_DDOT = 0

CCSDS_OMM_VERS = 2.0
CREATION_DATE  = 
ORIGINATOR     = 

OBJECT_NAME    = ARIANE 5 R/B
OBJECT_ID      = 2004-049H
CENTER_NAME    = EARTH
REF_FRAME      = TEME
TIME_SYSTEM    = UTC
MEAN_ELEMENT_THEORY = SGP/SGP4

EPOCH          = 2026-02-25T13:46:03.600192
MEAN_MOTION    = 14.85239405
ECCENTRICITY   = .0084796
INCLINATION    = 98.2608
RA_OF_ASC_NODE = 224.5789
ARG_OF_PERICENTER = 31.1190
MEAN_ANOMALY   = 329.5006

EPHEMERIS_TYPE = 0
CLASSIFICATION_TYPE = U
NORAD_CAT_ID   = 28499
ELEMENT_SET_NO = 999
REV_AT_EPOCH   = 14399
BSTAR          = .92852E-4
MEAN_MOTION_DOT = .785E-5
MEAN_MOTION_DDOT = 0

CCSDS_OMM_VERS = 2.0
CREATION_DATE  = 
ORIGINATOR     = 

OBJECT_NAME    = CZ-2D R/B
OBJECT_ID      = 2005-024B
CENTER_NAME    = EARTH
REF_FRAME      = TEME
TIME_SYSTEM    = UTC
MEAN_ELEMENT_THEORY = SGP/SGP4

EPOCH          = 2026-02-25T12:26:03.890112
MEAN_MOTION    = 15.58941608
ECCENTRICITY   = .0007416
INCLINATION    = 97.3619
RA_OF_ASC_NODE = 71.2297
ARG_OF_PERICENTER = 76.1882
MEAN_ANOMALY   = 284.0199

EPHEMERIS_TYPE = 0
CLASSIFICATION_TYPE = U
NORAD_CAT_ID   = 28738
ELEMENT_SET_NO = 999
REV_AT_EPOCH   = 13788
BSTAR          = .49341E-3
MEAN_MOTION_DOT = .38345E-3
MEAN_MOTION_DDOT = 0

