IDEFIX & ARIANE 42P R/B 
1 27422U 02021B   26056.81918992  .00000250  00000+0  11149-3 0  9993
2 27422  98.5857 355.5684 0010941 218.7403 141.2996 14.31016311242323
AQUA                    
1 27424U 02022A   26056.90364647  .00000980  00000+0  20547-3 0  9990
2 27424  98.4152  24.0559 0000863  49.0611 325.0823 14.61943069267015
CZ-4B R/B               
1 27432U 02024C   26056.77936447  .00000031  00000+0  38946-4 0  9999
2 27432  98.8867 110.2445 0050983  57.6453  76.4576 14.14545205227555
MIDORI II (ADEOS-II)    
1 27597U 02056A   26056.83284995  .00000249  00000+0  11573-3 0  9994
2 27597  98.7746  15.2303 0001958  59.4703 300.6671 14.29274476208603
H-2A R/B                
1 27601U 02056E   26056.83739321  .00000264  00000+0  10700-3 0  9996
2 27601  98.3178  17.6558 0069757 196.0070 193.5345 14.33751533212418
CZ-4B R/B               
1 28059U 03049C   26056.55540983  .00000398  00000+0  10292-3 0  9994
2 28059  98.6867  50.9854 0046991 268.8006  90.7806 14.55005908184831
CZ-2C R/B               
1 28222U 04012C   26056.57846612  .00049969  00000+0  54837-3 0  9997
2 28222  97.7265 120.7373 0014004 358.4403   1.6808 15.62960860202384
SL-16 R/B               
1 28353U 04021B   26056.50660603  .00000082  00000+0  67445-4 0  9992
2 28353  70.9989 258.0614 0003418  37.1991 322.9368 14.14599270121118
CZ-4B R/B               
1 28415U 04035C   26056.67067332  .00007397  00000+0  26274-3 0  9994
2 28415  97.3528  91.0588 0032520  14.7059 345.5120 15.28813144178075
CZ-2C R/B               
1 28480U 04046B   26056.35497396  .00000110  00000+0  55921-4 0  9998
2 28480  98.1989 332.1059 0139131 190.8801 168.9364 14.26987442106748
ARIANE 5 R/B            
1 28499U 04049H   26056.57365278  .00000785  00000+0  92852-4 0  9990
2 28499  98.2608 224.5789 0084796  31.1190 329.5006 14.85239405143995
CZ-2D R/B               
1 28738U 05024B   26056.51810058  .00038345  00000+0  49341-3 0  9992
2 28738  97.3619  71.2297 0007416  76.1882 284.0199 15.58941608137880
